; G-code generated by Raster Toolpath Generator
; 2026-01-18 05:18:25
G90 ; Absolute positioning
G21 ; Millimeter units
G94 ; Units per minute feed rate

F50.0
G1 X-47.889 Y-4.756 Z1.582
G1 X-47.861 Y-4.445 Z4.059
G1 X-47.838 Y-4.144 Z6.543
G1 X-47.835 Y-3.844 Z9.009
G1 X-47.846 Y-3.541 Z11.488
G1 X-47.861 Y-3.246 Z13.969
G1 X-47.859 Y-2.954 Z16.455
G1 X-47.848 Y-2.676 Z18.972
G1 X-47.860 Y-2.415 Z21.440
G1 X-47.870 Y-2.152 Z23.925
G1 X-47.863 Y-1.900 Z26.429
G1 X-47.844 Y-1.665 Z28.925
G1 X-47.830 Y-1.441 Z31.418
G1 X-47.850 Y-1.229 Z33.910
G1 X-47.841 Y-1.028 Z36.417
G1 X-47.842 Y-0.846 Z38.913
G1 X-47.830 Y-0.678 Z41.433
G1 X-47.839 Y-0.535 Z43.933
G1 X-47.835 Y-0.404 Z46.429
G1 X-47.850 Y-0.289 Z48.947
G1 X-47.875 Y-0.193 Z51.448
G1 X-47.886 Y-0.117 Z53.958
G1 X-47.882 Y-0.057 Z56.460
G1 X-47.854 Y-0.014 Z58.976
G1 X-47.856 Y-0.000 Z61.496
G1 X-47.871 Y-0.001 Z63.993
G1 X-47.853 Y-0.015 Z66.491
G1 X-47.865 Y-0.047 Z69.006
G1 X-47.858 Y-0.102 Z71.520
G1 X-47.841 Y-0.181 Z74.046
G1 X-47.835 Y-0.282 Z76.542
G1 X-47.838 Y-0.395 Z79.041
G1 X-47.849 Y-0.521 Z81.546
G1 X-47.851 Y-0.665 Z84.046
G1 X-47.854 Y-0.827 Z86.563
G1 X-47.871 Y-1.011 Z89.070
G1 X-47.864 Y-1.210 Z91.566
G1 X-47.836 Y-1.421 Z94.066
G1 X-47.852 Y-1.649 Z96.570
G1 X-47.881 Y-1.891 Z99.068
G1 X-47.894 Y-2.146 Z101.558
G1 X-47.894 Y-2.405 Z104.036
G1 X-47.880 Y-2.668 Z106.517
G1 X-47.846 Y-2.939 Z109.006
G1 X-47.832 Y-3.220 Z111.498
G1 X-47.835 Y-3.516 Z113.999
G1 X-47.837 Y-3.821 Z116.479
G1 X-47.859 Y-4.124 Z118.949
G1 X-47.857 Y-4.429 Z121.420
G1 X-47.858 Y-4.736 Z123.905
G1 X-47.875 Y-5.050 Z126.380
G1 X-47.878 Y-5.359 Z128.843
G1 X-47.868 Y-5.663 Z131.301
G1 X-47.842 Y-5.965 Z133.772
G1 X-47.836 Y-6.265 Z136.232
G1 X-47.830 Y-6.556 Z138.694
G1 X-47.855 Y-6.849 Z141.166
G1 X-47.860 Y-7.130 Z143.602
G1 X-47.841 Y-7.400 Z146.067
G1 X-47.827 Y-7.667 Z148.511
F200.0
G0 X-44.062 Y-7.620 Z148.499 ; Rapid move
F50.0
G1 X-44.062 Y-7.620 Z148.499
G1 X-44.059 Y-7.357 Z146.070
G1 X-44.057 Y-7.082 Z143.611
G1 X-44.059 Y-6.800 Z141.157
G1 X-44.060 Y-6.510 Z138.697
G1 X-44.061 Y-6.215 Z136.237
G1 X-44.060 Y-5.914 Z133.774
G1 X-44.060 Y-5.610 Z131.309
G1 X-44.060 Y-5.303 Z128.842
G1 X-44.060 Y-4.995 Z126.372
G1 X-44.060 Y-4.686 Z123.900
G1 X-44.060 Y-4.378 Z121.426
G1 X-44.060 Y-4.072 Z118.948
G1 X-44.061 Y-3.769 Z116.470
G1 X-44.059 Y-3.470 Z113.988
G1 X-44.060 Y-3.178 Z111.504
G1 X-44.060 Y-2.892 Z109.021
G1 X-44.060 Y-2.613 Z106.532
G1 X-44.060 Y-2.343 Z104.042
G1 X-44.059 Y-2.083 Z101.552
G1 X-44.059 Y-1.833 Z99.054
G1 X-44.061 Y-1.598 Z96.555
G1 X-44.062 Y-1.375 Z94.063
G1 X-44.056 Y-1.163 Z91.570
G1 X-44.049 Y-0.964 Z89.061
G1 X-44.055 Y-0.786 Z86.555
G1 X-44.063 Y-0.623 Z84.056
G1 X-44.063 Y-0.475 Z81.552
G1 X-44.064 Y-0.345 Z79.045
G1 X-44.065 Y-0.232 Z76.537
G1 X-44.063 Y-0.138 Z74.033
G1 X-44.054 Y-0.059 Z71.527
G1 X-44.054 Y-0.002 Z69.009
G1 X-44.062 Y0.034 Z66.505
G1 X-44.061 Y0.053 Z63.995
G1 X-44.063 Y0.052 Z61.485
G1 X-44.062 Y0.033 Z58.980
G1 X-44.053 Y-0.004 Z56.468
G1 X-44.053 Y-0.064 Z53.952
G1 X-44.061 Y-0.143 Z51.449
G1 X-44.062 Y-0.239 Z48.942
G1 X-44.062 Y-0.353 Z46.435
G1 X-44.062 Y-0.485 Z43.929
G1 X-44.061 Y-0.634 Z41.424
G1 X-44.061 Y-0.801 Z38.919
G1 X-44.061 Y-0.982 Z36.421
G1 X-44.060 Y-1.178 Z33.917
G1 X-44.063 Y-1.390 Z31.418
G1 X-44.062 Y-1.615 Z28.922
G1 X-44.060 Y-1.853 Z26.427
G1 X-44.056 Y-2.102 Z23.930
G1 X-44.059 Y-2.363 Z21.441
G1 X-44.055 Y-2.632 Z18.953
G1 X-44.049 Y-2.910 Z16.463
G1 X-44.055 Y-3.199 Z13.973
G1 X-44.059 Y-3.493 Z11.494
G1 X-44.061 Y-3.791 Z9.013
G1 X-44.059 Y-4.094 Z6.536
G1 X-44.053 Y-4.400 Z4.055
G1 X-44.041 Y-4.705 Z1.598
F200.0
G0 X-40.269 Y-4.488 Z1.598 ; Rapid move
F50.0
G1 X-40.269 Y-4.488 Z1.598
G1 X-40.271 Y-4.181 Z4.056
G1 X-40.276 Y-3.875 Z6.535
G1 X-40.277 Y-3.572 Z9.014
G1 X-40.277 Y-3.273 Z11.495
G1 X-40.278 Y-2.980 Z13.978
G1 X-40.277 Y-2.693 Z16.464
G1 X-40.277 Y-2.414 Z18.952
G1 X-40.278 Y-2.144 Z21.441
G1 X-40.278 Y-1.883 Z23.933
G1 X-40.278 Y-1.633 Z26.427
G1 X-40.278 Y-1.396 Z28.922
G1 X-40.278 Y-1.171 Z31.420
G1 X-40.278 Y-0.959 Z33.919
G1 X-40.278 Y-0.762 Z36.420
G1 X-40.279 Y-0.581 Z38.921
G1 X-40.279 Y-0.415 Z41.425
G1 X-40.279 Y-0.266 Z43.930
G1 X-40.279 Y-0.134 Z46.435
G1 X-40.279 Y-0.020 Z48.942
G1 X-40.279 Y0.076 Z51.450
G1 X-40.280 Y0.153 Z53.958
G1 X-40.279 Y0.212 Z56.466
G1 X-40.279 Y0.251 Z58.976
G1 X-40.280 Y0.271 Z61.485
G1 X-40.279 Y0.272 Z63.995
G1 X-40.280 Y0.253 Z66.504
G1 X-40.280 Y0.215 Z69.013
G1 X-40.279 Y0.158 Z71.522
G1 X-40.279 Y0.082 Z74.030
G1 X-40.279 Y-0.012 Z76.538
G1 X-40.279 Y-0.125 Z79.045
G1 X-40.279 Y-0.256 Z81.551
G1 X-40.279 Y-0.403 Z84.055
G1 X-40.279 Y-0.568 Z86.559
G1 X-40.278 Y-0.749 Z89.061
G1 X-40.278 Y-0.944 Z91.562
G1 X-40.279 Y-1.155 Z94.061
G1 X-40.278 Y-1.379 Z96.558
G1 X-40.277 Y-1.615 Z99.054
G1 X-40.277 Y-1.865 Z101.548
G1 X-40.277 Y-2.124 Z104.040
G1 X-40.277 Y-2.394 Z106.530
G1 X-40.277 Y-2.672 Z109.018
G1 X-40.277 Y-2.959 Z111.503
G1 X-40.277 Y-3.251 Z113.987
G1 X-40.277 Y-3.550 Z116.468
G1 X-40.277 Y-3.852 Z118.947
G1 X-40.277 Y-4.158 Z121.424
G1 X-40.276 Y-4.466 Z123.898
G1 X-40.276 Y-4.775 Z126.370
G1 X-40.277 Y-5.084 Z128.840
G1 X-40.277 Y-5.391 Z131.308
G1 X-40.277 Y-5.695 Z133.773
G1 X-40.277 Y-5.995 Z136.236
G1 X-40.277 Y-6.291 Z138.696
G1 X-40.277 Y-6.581 Z141.155
G1 X-40.277 Y-6.863 Z143.611
G1 X-40.277 Y-7.137 Z146.065
G1 X-40.273 Y-7.400 Z148.509
F200.0
G0 X-36.488 Y-7.020 Z148.509 ; Rapid move
F50.0
G1 X-36.488 Y-7.020 Z148.509
G1 X-36.485 Y-6.754 Z146.065
G1 X-36.484 Y-6.479 Z143.608
G1 X-36.484 Y-6.197 Z141.152
G1 X-36.484 Y-5.908 Z138.694
G1 X-36.483 Y-5.612 Z136.233
G1 X-36.483 Y-5.312 Z133.770
G1 X-36.483 Y-5.007 Z131.305
G1 X-36.483 Y-4.700 Z128.838
G1 X-36.483 Y-4.392 Z126.368
G1 X-36.483 Y-4.083 Z123.896
G1 X-36.483 Y-3.775 Z121.421
G1 X-36.483 Y-3.469 Z118.945
G1 X-36.483 Y-3.166 Z116.466
G1 X-36.484 Y-2.868 Z113.984
G1 X-36.484 Y-2.575 Z111.501
G1 X-36.484 Y-2.289 Z109.015
G1 X-36.484 Y-2.010 Z106.528
G1 X-36.484 Y-1.741 Z104.038
G1 X-36.485 Y-1.481 Z101.546
G1 X-36.485 Y-1.232 Z99.052
G1 X-36.485 Y-0.996 Z96.557
G1 X-36.486 Y-0.771 Z94.059
G1 X-36.486 Y-0.561 Z91.560
G1 X-36.486 Y-0.365 Z89.060
G1 X-36.486 Y-0.185 Z86.558
G1 X-36.487 Y-0.020 Z84.054
G1 X-36.487 Y0.127 Z81.550
G1 X-36.487 Y0.258 Z79.044
G1 X-36.487 Y0.371 Z76.537
G1 X-36.487 Y0.465 Z74.030
G1 X-36.488 Y0.541 Z71.522
G1 X-36.488 Y0.598 Z69.013
G1 X-36.488 Y0.636 Z66.504
G1 X-36.488 Y0.655 Z63.995
G1 X-36.488 Y0.654 Z61.485
G1 X-36.488 Y0.634 Z58.976
G1 X-36.488 Y0.595 Z56.467
G1 X-36.488 Y0.536 Z53.959
G1 X-36.487 Y0.459 Z51.450
G1 X-36.487 Y0.363 Z48.943
G1 X-36.487 Y0.249 Z46.436
G1 X-36.487 Y0.117 Z43.931
G1 X-36.487 Y-0.032 Z41.426
G1 X-36.486 Y-0.198 Z38.923
G1 X-36.486 Y-0.379 Z36.421
G1 X-36.486 Y-0.576 Z33.920
G1 X-36.486 Y-0.787 Z31.422
G1 X-36.485 Y-1.012 Z28.924
G1 X-36.485 Y-1.250 Z26.429
G1 X-36.485 Y-1.500 Z23.935
G1 X-36.484 Y-1.760 Z21.444
G1 X-36.484 Y-2.030 Z18.954
G1 X-36.484 Y-2.309 Z16.466
G1 X-36.484 Y-2.596 Z13.981
G1 X-36.483 Y-2.889 Z11.498
G1 X-36.483 Y-3.188 Z9.017
G1 X-36.483 Y-3.491 Z6.538
G1 X-36.487 Y-3.799 Z4.056
G1 X-36.495 Y-4.105 Z1.609
F200.0
G0 X-32.668 Y-3.560 Z1.604 ; Rapid move
F50.0
G1 X-32.668 Y-3.560 Z1.604
G1 X-32.678 Y-3.255 Z4.062
G1 X-32.678 Y-2.949 Z6.542
G1 X-32.677 Y-2.646 Z9.020
G1 X-32.677 Y-2.347 Z11.501
G1 X-32.677 Y-2.054 Z13.984
G1 X-32.678 Y-1.767 Z16.469
G1 X-32.678 Y-1.488 Z18.957
G1 X-32.678 Y-1.218 Z21.446
G1 X-32.679 Y-0.958 Z23.938
G1 X-32.679 Y-0.708 Z26.431
G1 X-32.679 Y-0.471 Z28.927
G1 X-32.680 Y-0.246 Z31.424
G1 X-32.680 Y-0.034 Z33.923
G1 X-32.680 Y0.163 Z36.423
G1 X-32.681 Y0.344 Z38.925
G1 X-32.681 Y0.510 Z41.428
G1 X-32.681 Y0.659 Z43.932
G1 X-32.682 Y0.791 Z46.438
G1 X-32.682 Y0.905 Z48.944
G1 X-32.682 Y1.001 Z51.451
G1 X-32.682 Y1.078 Z53.959
G1 X-32.682 Y1.136 Z56.468
G1 X-32.683 Y1.176 Z58.976
G1 X-32.683 Y1.196 Z61.486
G1 X-32.683 Y1.197 Z63.995
G1 X-32.683 Y1.178 Z66.504
G1 X-32.682 Y1.140 Z69.012
G1 X-32.682 Y1.083 Z71.521
G1 X-32.682 Y1.007 Z74.029
G1 X-32.682 Y0.912 Z76.536
G1 X-32.682 Y0.800 Z79.043
G1 X-32.681 Y0.669 Z81.548
G1 X-32.681 Y0.521 Z84.052
G1 X-32.681 Y0.357 Z86.556
G1 X-32.680 Y0.176 Z89.058
G1 X-32.680 Y-0.019 Z91.558
G1 X-32.680 Y-0.230 Z94.057
G1 X-32.679 Y-0.454 Z96.554
G1 X-32.679 Y-0.691 Z99.050
G1 X-32.679 Y-0.939 Z101.543
G1 X-32.678 Y-1.199 Z104.035
G1 X-32.678 Y-1.468 Z106.525
G1 X-32.678 Y-1.747 Z109.012
G1 X-32.677 Y-2.033 Z111.498
G1 X-32.677 Y-2.326 Z113.981
G1 X-32.677 Y-2.624 Z116.462
G1 X-32.677 Y-2.927 Z118.941
G1 X-32.677 Y-3.233 Z121.418
G1 X-32.677 Y-3.541 Z123.892
G1 X-32.677 Y-3.850 Z126.364
G1 X-32.677 Y-4.158 Z128.834
G1 X-32.677 Y-4.465 Z131.302
G1 X-32.677 Y-4.769 Z133.767
G1 X-32.677 Y-5.070 Z136.230
G1 X-32.677 Y-5.366 Z138.691
G1 X-32.677 Y-5.655 Z141.149
G1 X-32.677 Y-5.937 Z143.605
G1 X-32.678 Y-6.211 Z146.060
G1 X-32.679 Y-6.477 Z148.513
F200.0
G0 X-28.849 Y-5.785 Z148.507 ; Rapid move
F50.0
G1 X-28.849 Y-5.785 Z148.507
G1 X-28.854 Y-5.519 Z146.058
G1 X-28.855 Y-5.244 Z143.601
G1 X-28.854 Y-4.962 Z141.145
G1 X-28.854 Y-4.673 Z138.687
G1 X-28.853 Y-4.377 Z136.226
G1 X-28.853 Y-4.077 Z133.763
G1 X-28.853 Y-3.772 Z131.298
G1 X-28.853 Y-3.465 Z128.830
G1 X-28.853 Y-3.157 Z126.361
G1 X-28.853 Y-2.848 Z123.888
G1 X-28.853 Y-2.540 Z121.414
G1 X-28.853 Y-2.234 Z118.938
G1 X-28.853 Y-1.931 Z116.459
G1 X-28.854 Y-1.633 Z113.977
G1 X-28.854 Y-1.340 Z111.494
G1 X-28.854 Y-1.054 Z109.009
G1 X-28.854 Y-0.776 Z106.521
G1 X-28.855 Y-0.506 Z104.032
G1 X-28.855 Y-0.247 Z101.540
G1 X-28.856 Y0.002 Z99.047
G1 X-28.856 Y0.239 Z96.551
G1 X-28.857 Y0.463 Z94.054
G1 X-28.857 Y0.673 Z91.555
G1 X-28.857 Y0.869 Z89.055
G1 X-28.858 Y1.049 Z86.554
G1 X-28.858 Y1.214 Z84.050
G1 X-28.859 Y1.361 Z81.546
G1 X-28.859 Y1.492 Z79.041
G1 X-28.859 Y1.605 Z76.535
G1 X-28.860 Y1.699 Z74.028
G1 X-28.860 Y1.775 Z71.520
G1 X-28.860 Y1.832 Z69.012
G1 X-28.860 Y1.870 Z66.503
G1 X-28.860 Y1.889 Z63.994
G1 X-28.860 Y1.888 Z61.486
G1 X-28.860 Y1.868 Z58.977
G1 X-28.860 Y1.829 Z56.468
G1 X-28.860 Y1.770 Z53.960
G1 X-28.860 Y1.693 Z51.452
G1 X-28.859 Y1.597 Z48.945
G1 X-28.859 Y1.483 Z46.439
G1 X-28.859 Y1.351 Z43.934
G1 X-28.858 Y1.202 Z41.430
G1 X-28.858 Y1.037 Z38.927
G1 X-28.857 Y0.855 Z36.426
G1 X-28.857 Y0.658 Z33.925
G1 X-28.857 Y0.447 Z31.427
G1 X-28.856 Y0.222 Z28.930
G1 X-28.856 Y-0.016 Z26.435
G1 X-28.855 Y-0.265 Z23.941
G1 X-28.855 Y-0.526 Z21.450
G1 X-28.854 Y-0.796 Z18.960
G1 X-28.854 Y-1.075 Z16.473
G1 X-28.854 Y-1.361 Z13.988
G1 X-28.854 Y-1.655 Z11.504
G1 X-28.853 Y-1.953 Z9.024
G1 X-28.852 Y-2.255 Z6.546
G1 X-28.852 Y-2.562 Z4.065
G1 X-28.865 Y-2.877 Z1.589
F200.0
G0 X-25.016 Y-2.031 Z1.628 ; Rapid move
F50.0
G1 X-25.016 Y-2.031 Z1.628
G1 X-25.009 Y-1.729 Z4.072
G1 X-25.009 Y-1.423 Z6.549
G1 X-25.010 Y-1.120 Z9.028
G1 X-25.010 Y-0.821 Z11.509
G1 X-25.010 Y-0.528 Z13.992
G1 X-25.011 Y-0.242 Z16.477
G1 X-25.011 Y0.037 Z18.964
G1 X-25.012 Y0.307 Z21.453
G1 X-25.012 Y0.568 Z23.945
G1 X-25.012 Y0.817 Z26.438
G1 X-25.013 Y1.055 Z28.933
G1 X-25.013 Y1.280 Z31.430
G1 X-25.014 Y1.491 Z33.928
G1 X-25.014 Y1.688 Z36.428
G1 X-25.015 Y1.869 Z38.929
G1 X-25.015 Y2.035 Z41.432
G1 X-25.016 Y2.184 Z43.936
G1 X-25.016 Y2.316 Z46.441
G1 X-25.017 Y2.430 Z48.947
G1 X-25.017 Y2.525 Z51.454
G1 X-25.017 Y2.603 Z53.961
G1 X-25.017 Y2.661 Z56.469
G1 X-25.018 Y2.700 Z58.977
G1 X-25.018 Y2.720 Z61.486
G1 X-25.018 Y2.721 Z63.994
G1 X-25.018 Y2.703 Z66.503
G1 X-25.017 Y2.665 Z69.011
G1 X-25.017 Y2.608 Z71.519
G1 X-25.017 Y2.532 Z74.027
G1 X-25.017 Y2.437 Z76.533
G1 X-25.016 Y2.325 Z79.039
G1 X-25.016 Y2.194 Z81.544
G1 X-25.016 Y2.046 Z84.048
G1 X-25.015 Y1.882 Z86.551
G1 X-25.015 Y1.702 Z89.053
G1 X-25.014 Y1.506 Z91.553
G1 X-25.013 Y1.296 Z94.051
G1 X-25.013 Y1.072 Z96.548
G1 X-25.013 Y0.835 Z99.043
G1 X-25.012 Y0.586 Z101.537
G1 X-25.012 Y0.327 Z104.028
G1 X-25.011 Y0.057 Z106.518
G1 X-25.011 Y-0.221 Z109.005
G1 X-25.010 Y-0.507 Z111.490
G1 X-25.010 Y-0.800 Z113.973
G1 X-25.010 Y-1.098 Z116.455
G1 X-25.009 Y-1.401 Z118.934
G1 X-25.009 Y-1.707 Z121.410
G1 X-25.009 Y-2.015 Z123.884
G1 X-25.009 Y-2.324 Z126.356
G1 X-25.009 Y-2.632 Z128.826
G1 X-25.009 Y-2.939 Z131.294
G1 X-25.010 Y-3.243 Z133.759
G1 X-25.010 Y-3.544 Z136.222
G1 X-25.010 Y-3.840 Z138.683
G1 X-25.010 Y-4.129 Z141.142
G1 X-25.010 Y-4.412 Z143.599
G1 X-25.010 Y-4.687 Z146.056
G1 X-25.019 Y-4.955 Z148.502
F200.0
G0 X-21.144 Y-3.989 Z148.493 ; Rapid move
F50.0
G1 X-21.144 Y-3.989 Z148.493
G1 X-21.147 Y-3.726 Z146.049
G1 X-21.146 Y-3.451 Z143.594
G1 X-21.145 Y-3.169 Z141.138
G1 X-21.145 Y-2.879 Z138.679
G1 X-21.144 Y-2.583 Z136.218
G1 X-21.144 Y-2.283 Z133.755
G1 X-21.144 Y-1.979 Z131.290
G1 X-21.144 Y-1.671 Z128.822
G1 X-21.144 Y-1.363 Z126.352
G1 X-21.144 Y-1.054 Z123.880
G1 X-21.144 Y-0.746 Z121.406
G1 X-21.144 Y-0.440 Z118.929
G1 X-21.144 Y-0.138 Z116.451
G1 X-21.144 Y0.161 Z113.970
G1 X-21.145 Y0.453 Z111.487
G1 X-21.145 Y0.739 Z109.001
G1 X-21.146 Y1.018 Z106.514
G1 X-21.146 Y1.287 Z104.025
G1 X-21.147 Y1.547 Z101.533
G1 X-21.147 Y1.795 Z99.040
G1 X-21.148 Y2.032 Z96.545
G1 X-21.148 Y2.256 Z94.048
G1 X-21.149 Y2.466 Z91.550
G1 X-21.150 Y2.662 Z89.050
G1 X-21.150 Y2.842 Z86.549
G1 X-21.151 Y3.006 Z84.046
G1 X-21.151 Y3.154 Z81.543
G1 X-21.151 Y3.284 Z79.038
G1 X-21.152 Y3.397 Z76.532
G1 X-21.152 Y3.492 Z74.025
G1 X-21.152 Y3.567 Z71.518
G1 X-21.153 Y3.624 Z69.011
G1 X-21.153 Y3.662 Z66.502
G1 X-21.153 Y3.681 Z63.994
G1 X-21.153 Y3.680 Z61.486
G1 X-21.153 Y3.660 Z58.978
G1 X-21.153 Y3.621 Z56.469
G1 X-21.152 Y3.563 Z53.962
G1 X-21.152 Y3.485 Z51.455
G1 X-21.152 Y3.389 Z48.948
G1 X-21.151 Y3.275 Z46.443
G1 X-21.151 Y3.144 Z43.938
G1 X-21.151 Y2.995 Z41.434
G1 X-21.150 Y2.829 Z38.932
G1 X-21.149 Y2.648 Z36.431
G1 X-21.149 Y2.451 Z33.931
G1 X-21.148 Y2.240 Z31.433
G1 X-21.148 Y2.015 Z28.936
G1 X-21.147 Y1.777 Z26.441
G1 X-21.147 Y1.528 Z23.948
G1 X-21.146 Y1.268 Z21.457
G1 X-21.146 Y0.998 Z18.968
G1 X-21.145 Y0.719 Z16.481
G1 X-21.145 Y0.432 Z13.995
G1 X-21.144 Y0.139 Z11.513
G1 X-21.144 Y-0.160 Z9.031
G1 X-21.144 Y-0.463 Z6.552
G1 X-21.145 Y-0.769 Z4.081
G1 X-21.148 Y-1.064 Z1.641
F200.0
G0 X-17.245 Y0.007 Z1.634 ; Rapid move
F50.0
G1 X-17.245 Y0.007 Z1.634
G1 X-17.253 Y0.304 Z4.081
G1 X-17.256 Y0.610 Z6.557
G1 X-17.255 Y0.913 Z9.035
G1 X-17.256 Y1.211 Z11.516
G1 X-17.256 Y1.505 Z13.999
G1 X-17.256 Y1.791 Z16.484
G1 X-17.257 Y2.070 Z18.971
G1 X-17.257 Y2.340 Z21.460
G1 X-17.258 Y2.600 Z23.951
G1 X-17.259 Y2.850 Z26.444
G1 X-17.259 Y3.087 Z28.939
G1 X-17.260 Y3.312 Z31.435
G1 X-17.260 Y3.523 Z33.933
G1 X-17.261 Y3.720 Z36.433
G1 X-17.262 Y3.901 Z38.934
G1 X-17.262 Y4.067 Z41.436
G1 X-17.263 Y4.216 Z43.940
G1 X-17.263 Y4.347 Z46.444
G1 X-17.263 Y4.461 Z48.950
G1 X-17.264 Y4.557 Z51.456
G1 X-17.264 Y4.634 Z53.963
G1 X-17.264 Y4.693 Z56.470
G1 X-17.264 Y4.732 Z58.978
G1 X-17.264 Y4.752 Z61.486
G1 X-17.265 Y4.753 Z63.994
G1 X-17.264 Y4.734 Z66.502
G1 X-17.264 Y4.696 Z69.010
G1 X-17.264 Y4.639 Z71.517
G1 X-17.264 Y4.563 Z74.024
G1 X-17.263 Y4.469 Z76.531
G1 X-17.263 Y4.356 Z79.036
G1 X-17.263 Y4.226 Z81.541
G1 X-17.262 Y4.078 Z84.044
G1 X-17.262 Y3.914 Z86.547
G1 X-17.261 Y3.734 Z89.048
G1 X-17.260 Y3.538 Z91.548
G1 X-17.260 Y3.328 Z94.046
G1 X-17.259 Y3.104 Z96.542
G1 X-17.259 Y2.867 Z99.037
G1 X-17.258 Y2.619 Z101.530
G1 X-17.257 Y2.359 Z104.021
G1 X-17.257 Y2.090 Z106.511
G1 X-17.256 Y1.812 Z108.998
G1 X-17.256 Y1.526 Z111.483
G1 X-17.256 Y1.233 Z113.966
G1 X-17.255 Y0.935 Z116.447
G1 X-17.255 Y0.632 Z118.926
G1 X-17.255 Y0.326 Z121.402
G1 X-17.255 Y0.018 Z123.877
G1 X-17.255 Y-0.290 Z126.349
G1 X-17.255 Y-0.599 Z128.818
G1 X-17.255 Y-0.906 Z131.286
G1 X-17.255 Y-1.210 Z133.751
G1 X-17.255 Y-1.511 Z136.214
G1 X-17.256 Y-1.807 Z138.675
G1 X-17.256 Y-2.096 Z141.134
G1 X-17.256 Y-2.379 Z143.591
G1 X-17.256 Y-2.653 Z146.047
G1 X-17.258 Y-2.920 Z148.498
F200.0
G0 X-13.345 Y-1.751 Z148.491 ; Rapid move
F50.0
G1 X-13.345 Y-1.751 Z148.491
G1 X-13.344 Y-1.487 Z146.043
G1 X-13.343 Y-1.212 Z143.588
G1 X-13.343 Y-0.930 Z141.131
G1 X-13.342 Y-0.640 Z138.672
G1 X-13.342 Y-0.344 Z136.211
G1 X-13.342 Y-0.044 Z133.748
G1 X-13.342 Y0.261 Z131.283
G1 X-13.342 Y0.568 Z128.815
G1 X-13.341 Y0.876 Z126.345
G1 X-13.342 Y1.185 Z123.873
G1 X-13.342 Y1.493 Z121.399
G1 X-13.342 Y1.799 Z118.923
G1 X-13.342 Y2.102 Z116.444
G1 X-13.342 Y2.400 Z113.963
G1 X-13.343 Y2.693 Z111.480
G1 X-13.343 Y2.979 Z108.995
G1 X-13.344 Y3.257 Z106.508
G1 X-13.344 Y3.526 Z104.019
G1 X-13.345 Y3.786 Z101.528
G1 X-13.346 Y4.034 Z99.035
G1 X-13.346 Y4.271 Z96.540
G1 X-13.347 Y4.495 Z94.043
G1 X-13.347 Y4.705 Z91.545
G1 X-13.348 Y4.900 Z89.046
G1 X-13.349 Y5.080 Z86.545
G1 X-13.349 Y5.245 Z84.043
G1 X-13.350 Y5.392 Z81.539
G1 X-13.350 Y5.523 Z79.035
G1 X-13.351 Y5.635 Z76.530
G1 X-13.351 Y5.730 Z74.024
G1 X-13.351 Y5.806 Z71.517
G1 X-13.352 Y5.863 Z69.009
G1 X-13.352 Y5.900 Z66.502
G1 X-13.352 Y5.919 Z63.994
G1 X-13.352 Y5.918 Z61.486
G1 X-13.352 Y5.898 Z58.978
G1 X-13.352 Y5.859 Z56.471
G1 X-13.351 Y5.801 Z53.963
G1 X-13.351 Y5.723 Z51.457
G1 X-13.351 Y5.628 Z48.951
G1 X-13.350 Y5.514 Z46.445
G1 X-13.350 Y5.382 Z43.941
G1 X-13.349 Y5.233 Z41.438
G1 X-13.349 Y5.068 Z38.936
G1 X-13.348 Y4.886 Z36.435
G1 X-13.347 Y4.690 Z33.935
G1 X-13.347 Y4.479 Z31.437
G1 X-13.346 Y4.254 Z28.941
G1 X-13.345 Y4.016 Z26.447
G1 X-13.345 Y3.767 Z23.954
G1 X-13.344 Y3.507 Z21.463
G1 X-13.344 Y3.237 Z18.974
G1 X-13.343 Y2.958 Z16.487
G1 X-13.343 Y2.671 Z14.002
G1 X-13.342 Y2.378 Z11.519
G1 X-13.342 Y2.080 Z9.039
G1 X-13.342 Y1.777 Z6.560
G1 X-13.344 Y1.470 Z4.082
G1 X-13.343 Y1.163 Z1.617
F200.0
G0 X-9.406 Y2.404 Z1.617 ; Rapid move
F50.0
G1 X-9.406 Y2.404 Z1.617
G1 X-9.403 Y2.712 Z4.086
G1 X-9.404 Y3.018 Z6.562
G1 X-9.404 Y3.321 Z9.041
G1 X-9.404 Y3.620 Z11.521
G1 X-9.405 Y3.913 Z14.004
G1 X-9.405 Y4.199 Z16.489
G1 X-9.406 Y4.478 Z18.976
G1 X-9.406 Y4.748 Z21.465
G1 X-9.407 Y5.008 Z23.956
G1 X-9.408 Y5.258 Z26.448
G1 X-9.408 Y5.495 Z28.943
G1 X-9.409 Y5.720 Z31.439
G1 X-9.410 Y5.931 Z33.937
G1 X-9.410 Y6.128 Z36.436
G1 X-9.411 Y6.309 Z38.937
G1 X-9.411 Y6.474 Z41.439
G1 X-9.412 Y6.623 Z43.942
G1 X-9.412 Y6.755 Z46.446
G1 X-9.413 Y6.869 Z48.951
G1 X-9.413 Y6.965 Z51.457
G1 X-9.414 Y7.042 Z53.964
G1 X-9.414 Y7.100 Z56.471
G1 X-9.414 Y7.139 Z58.979
G1 X-9.414 Y7.159 Z61.486
G1 X-9.414 Y7.160 Z63.994
G1 X-9.414 Y7.142 Z66.502
G1 X-9.414 Y7.104 Z69.009
G1 X-9.414 Y7.047 Z71.516
G1 X-9.413 Y6.971 Z74.023
G1 X-9.413 Y6.876 Z76.529
G1 X-9.413 Y6.764 Z79.034
G1 X-9.412 Y6.634 Z81.538
G1 X-9.411 Y6.486 Z84.042
G1 X-9.411 Y6.322 Z86.544
G1 X-9.410 Y6.141 Z89.044
G1 X-9.410 Y5.946 Z91.544
G1 X-9.409 Y5.736 Z94.042
G1 X-9.408 Y5.512 Z96.538
G1 X-9.408 Y5.275 Z99.033
G1 X-9.407 Y5.027 Z101.526
G1 X-9.406 Y4.768 Z104.017
G1 X-9.406 Y4.498 Z106.506
G1 X-9.405 Y4.220 Z108.993
G1 X-9.405 Y3.934 Z111.478
G1 X-9.404 Y3.641 Z113.961
G1 X-9.404 Y3.343 Z116.442
G1 X-9.404 Y3.040 Z118.920
G1 X-9.404 Y2.735 Z121.397
G1 X-9.403 Y2.427 Z123.871
G1 X-9.403 Y2.118 Z126.343
G1 X-9.404 Y1.809 Z128.813
G1 X-9.404 Y1.502 Z131.280
G1 X-9.404 Y1.198 Z133.746
G1 X-9.404 Y0.897 Z136.209
G1 X-9.404 Y0.602 Z138.670
G1 X-9.405 Y0.312 Z141.129
G1 X-9.405 Y0.029 Z143.586
G1 X-9.406 Y-0.245 Z146.041
G1 X-9.407 Y-0.509 Z148.488
F200.0
G0 X-5.443 Y0.786 Z148.490 ; Rapid move
F50.0
G1 X-5.443 Y0.786 Z148.490
G1 X-5.443 Y1.050 Z146.039
G1 X-5.442 Y1.324 Z143.585
G1 X-5.442 Y1.607 Z141.128
G1 X-5.441 Y1.896 Z138.669
G1 X-5.441 Y2.192 Z136.208
G1 X-5.441 Y2.493 Z133.744
G1 X-5.441 Y2.797 Z131.279
G1 X-5.440 Y3.104 Z128.811
G1 X-5.440 Y3.413 Z126.341
G1 X-5.440 Y3.722 Z123.869
G1 X-5.441 Y4.030 Z121.395
G1 X-5.441 Y4.335 Z118.919
G1 X-5.441 Y4.638 Z116.440
G1 X-5.441 Y4.936 Z113.959
G1 X-5.442 Y5.229 Z111.476
G1 X-5.442 Y5.515 Z108.991
G1 X-5.443 Y5.793 Z106.504
G1 X-5.443 Y6.062 Z104.015
G1 X-5.444 Y6.322 Z101.524
G1 X-5.445 Y6.570 Z99.032
G1 X-5.445 Y6.807 Z96.537
G1 X-5.446 Y7.031 Z94.041
G1 X-5.447 Y7.241 Z91.543
G1 X-5.447 Y7.436 Z89.044
G1 X-5.448 Y7.616 Z86.543
G1 X-5.449 Y7.781 Z84.041
G1 X-5.449 Y7.928 Z81.538
G1 X-5.450 Y8.059 Z79.033
G1 X-5.450 Y8.171 Z76.528
G1 X-5.451 Y8.266 Z74.022
G1 X-5.451 Y8.341 Z71.516
G1 X-5.451 Y8.398 Z69.009
G1 X-5.451 Y8.436 Z66.502
G1 X-5.451 Y8.455 Z63.994
G1 X-5.451 Y8.454 Z61.486
G1 X-5.451 Y8.434 Z58.979
G1 X-5.451 Y8.395 Z56.471
G1 X-5.451 Y8.337 Z53.964
G1 X-5.450 Y8.259 Z51.458
G1 X-5.450 Y8.164 Z48.952
G1 X-5.450 Y8.050 Z46.447
G1 X-5.449 Y7.918 Z43.943
G1 X-5.449 Y7.769 Z41.440
G1 X-5.448 Y7.604 Z38.938
G1 X-5.447 Y7.422 Z36.437
G1 X-5.447 Y7.226 Z33.938
G1 X-5.446 Y7.015 Z31.440
G1 X-5.445 Y6.790 Z28.944
G1 X-5.445 Y6.552 Z26.450
G1 X-5.444 Y6.303 Z23.957
G1 X-5.443 Y6.043 Z21.466
G1 X-5.443 Y5.773 Z18.977
G1 X-5.442 Y5.494 Z16.490
G1 X-5.442 Y5.208 Z14.006
G1 X-5.441 Y4.915 Z11.523
G1 X-5.441 Y4.616 Z9.042
G1 X-5.441 Y4.313 Z6.563
G1 X-5.440 Y4.006 Z4.084
G1 X-5.439 Y3.698 Z1.618
F200.0
G0 X-1.453 Y5.023 Z1.614 ; Rapid move
F50.0
G1 X-1.453 Y5.023 Z1.614
G1 X-1.453 Y5.332 Z4.085
G1 X-1.453 Y5.639 Z6.564
G1 X-1.453 Y5.942 Z9.043
G1 X-1.453 Y6.240 Z11.523
G1 X-1.454 Y6.534 Z14.006
G1 X-1.454 Y6.820 Z16.491
G1 X-1.455 Y7.099 Z18.978
G1 X-1.455 Y7.369 Z21.467
G1 X-1.456 Y7.629 Z23.957
G1 X-1.456 Y7.878 Z26.450
G1 X-1.457 Y8.116 Z28.944
G1 X-1.458 Y8.341 Z31.441
G1 X-1.459 Y8.552 Z33.938
G1 X-1.459 Y8.748 Z36.437
G1 X-1.460 Y8.930 Z38.938
G1 X-1.460 Y9.095 Z41.440
G1 X-1.461 Y9.244 Z43.943
G1 X-1.462 Y9.375 Z46.447
G1 X-1.462 Y9.489 Z48.952
G1 X-1.462 Y9.585 Z51.458
G1 X-1.463 Y9.662 Z53.964
G1 X-1.463 Y9.721 Z56.471
G1 X-1.463 Y9.760 Z58.979
G1 X-1.463 Y9.780 Z61.486
G1 X-1.463 Y9.781 Z63.994
G1 X-1.463 Y9.762 Z66.501
G1 X-1.463 Y9.724 Z69.009
G1 X-1.463 Y9.667 Z71.516
G1 X-1.462 Y9.591 Z74.022
G1 X-1.462 Y9.497 Z76.528
G1 X-1.462 Y9.384 Z79.033
G1 X-1.461 Y9.254 Z81.537
G1 X-1.460 Y9.106 Z84.041
G1 X-1.460 Y8.942 Z86.543
G1 X-1.459 Y8.762 Z89.043
G1 X-1.459 Y8.566 Z91.543
G1 X-1.458 Y8.356 Z94.040
G1 X-1.457 Y8.133 Z96.537
G1 X-1.457 Y7.896 Z99.031
G1 X-1.456 Y7.648 Z101.524
G1 X-1.455 Y7.388 Z104.015
G1 X-1.455 Y7.119 Z106.504
G1 X-1.454 Y6.841 Z108.991
G1 X-1.454 Y6.555 Z111.476
G1 X-1.453 Y6.262 Z113.959
G1 X-1.453 Y5.964 Z116.440
G1 X-1.453 Y5.661 Z118.918
G1 X-1.452 Y5.355 Z121.395
G1 X-1.452 Y5.047 Z123.869
G1 X-1.452 Y4.739 Z126.341
G1 X-1.452 Y4.430 Z128.811
G1 X-1.452 Y4.123 Z131.278
G1 X-1.453 Y3.819 Z133.744
G1 X-1.453 Y3.518 Z136.207
G1 X-1.453 Y3.222 Z138.668
G1 X-1.454 Y2.933 Z141.127
G1 X-1.455 Y2.650 Z143.583
G1 X-1.456 Y2.376 Z146.039
G1 X-1.455 Y2.110 Z148.496
F200.0
G0 X2.558 Y3.443 Z148.500 ; Rapid move
F50.0
G1 X2.558 Y3.443 Z148.500
G1 X2.558 Y3.710 Z146.041
G1 X2.558 Y3.984 Z143.583
G1 X2.559 Y4.266 Z141.127
G1 X2.560 Y4.556 Z138.669
G1 X2.560 Y4.851 Z136.208
G1 X2.561 Y5.152 Z133.744
G1 X2.561 Y5.456 Z131.279
G1 X2.561 Y5.763 Z128.811
G1 X2.561 Y6.072 Z126.342
G1 X2.561 Y6.381 Z123.869
G1 X2.561 Y6.689 Z121.395
G1 X2.561 Y6.995 Z118.919
G1 X2.560 Y7.297 Z116.440
G1 X2.560 Y7.595 Z113.959
G1 X2.560 Y7.888 Z111.476
G1 X2.559 Y8.174 Z108.991
G1 X2.559 Y8.452 Z106.504
G1 X2.558 Y8.722 Z104.015
G1 X2.557 Y8.981 Z101.524
G1 X2.557 Y9.230 Z99.032
G1 X2.556 Y9.466 Z96.537
G1 X2.555 Y9.690 Z94.041
G1 X2.555 Y9.900 Z91.543
G1 X2.554 Y10.095 Z89.044
G1 X2.553 Y10.276 Z86.543
G1 X2.553 Y10.440 Z84.041
G1 X2.552 Y10.587 Z81.538
G1 X2.552 Y10.718 Z79.033
G1 X2.551 Y10.830 Z76.528
G1 X2.551 Y10.925 Z74.022
G1 X2.551 Y11.001 Z71.516
G1 X2.550 Y11.058 Z69.009
G1 X2.550 Y11.095 Z66.502
G1 X2.550 Y11.114 Z63.994
G1 X2.550 Y11.113 Z61.486
G1 X2.550 Y11.093 Z58.979
G1 X2.550 Y11.054 Z56.471
G1 X2.551 Y10.996 Z53.964
G1 X2.551 Y10.919 Z51.458
G1 X2.551 Y10.823 Z48.952
G1 X2.552 Y10.709 Z46.447
G1 X2.552 Y10.577 Z43.943
G1 X2.553 Y10.428 Z41.440
G1 X2.554 Y10.263 Z38.938
G1 X2.554 Y10.082 Z36.437
G1 X2.555 Y9.885 Z33.938
G1 X2.556 Y9.674 Z31.440
G1 X2.556 Y9.449 Z28.944
G1 X2.557 Y9.212 Z26.450
G1 X2.557 Y8.962 Z23.957
G1 X2.558 Y8.702 Z21.466
G1 X2.559 Y8.432 Z18.977
G1 X2.559 Y8.153 Z16.490
G1 X2.560 Y7.867 Z14.005
G1 X2.560 Y7.574 Z11.523
G1 X2.560 Y7.275 Z9.042
G1 X2.561 Y6.972 Z6.564
G1 X2.560 Y6.666 Z4.087
G1 X2.560 Y6.358 Z1.613
F200.0
G0 X6.600 Y7.676 Z1.611 ; Rapid move
F50.0
G1 X6.600 Y7.676 Z1.611
G1 X6.598 Y7.984 Z4.087
G1 X6.598 Y8.290 Z6.563
G1 X6.599 Y8.592 Z9.041
G1 X6.599 Y8.891 Z11.521
G1 X6.598 Y9.184 Z14.004
G1 X6.598 Y9.471 Z16.489
G1 X6.597 Y9.749 Z18.976
G1 X6.597 Y10.019 Z21.465
G1 X6.596 Y10.280 Z23.956
G1 X6.595 Y10.529 Z26.448
G1 X6.595 Y10.766 Z28.943
G1 X6.594 Y10.991 Z31.439
G1 X6.593 Y11.202 Z33.937
G1 X6.593 Y11.399 Z36.436
G1 X6.592 Y11.580 Z38.937
G1 X6.592 Y11.746 Z41.439
G1 X6.591 Y11.895 Z43.942
G1 X6.590 Y12.026 Z46.446
G1 X6.590 Y12.140 Z48.951
G1 X6.590 Y12.236 Z51.457
G1 X6.589 Y12.313 Z53.964
G1 X6.589 Y12.371 Z56.471
G1 X6.589 Y12.411 Z58.979
G1 X6.589 Y12.431 Z61.486
G1 X6.589 Y12.431 Z63.994
G1 X6.589 Y12.413 Z66.502
G1 X6.589 Y12.375 Z69.009
G1 X6.589 Y12.318 Z71.516
G1 X6.590 Y12.242 Z74.023
G1 X6.590 Y12.148 Z76.529
G1 X6.590 Y12.035 Z79.034
G1 X6.591 Y11.905 Z81.538
G1 X6.592 Y11.757 Z84.042
G1 X6.592 Y11.593 Z86.544
G1 X6.593 Y11.413 Z89.045
G1 X6.593 Y11.217 Z91.544
G1 X6.594 Y11.007 Z94.042
G1 X6.595 Y10.783 Z96.538
G1 X6.595 Y10.547 Z99.033
G1 X6.596 Y10.298 Z101.526
G1 X6.597 Y10.039 Z104.017
G1 X6.597 Y9.769 Z106.506
G1 X6.598 Y9.491 Z108.993
G1 X6.598 Y9.205 Z111.478
G1 X6.599 Y8.913 Z113.961
G1 X6.599 Y8.614 Z116.442
G1 X6.599 Y8.312 Z118.920
G1 X6.599 Y8.006 Z121.397
G1 X6.599 Y7.698 Z123.871
G1 X6.600 Y7.389 Z126.343
G1 X6.600 Y7.081 Z128.813
G1 X6.599 Y6.774 Z131.280
G1 X6.599 Y6.469 Z133.746
G1 X6.599 Y6.168 Z136.209
G1 X6.598 Y5.873 Z138.670
G1 X6.598 Y5.583 Z141.128
G1 X6.598 Y5.302 Z143.583
G1 X6.597 Y5.028 Z146.042
G1 X6.598 Y4.758 Z148.510
F200.0
G0 X10.659 Y6.036 Z148.511 ; Rapid move
F50.0
G1 X10.659 Y6.036 Z148.511
G1 X10.663 Y6.305 Z146.042
G1 X10.662 Y6.578 Z143.587
G1 X10.662 Y6.860 Z141.131
G1 X10.662 Y7.150 Z138.673
G1 X10.662 Y7.445 Z136.211
G1 X10.663 Y7.746 Z133.748
G1 X10.663 Y8.050 Z131.283
G1 X10.663 Y8.357 Z128.815
G1 X10.663 Y8.666 Z126.346
G1 X10.663 Y8.975 Z123.873
G1 X10.663 Y9.283 Z121.399
G1 X10.663 Y9.589 Z118.923
G1 X10.662 Y9.891 Z116.444
G1 X10.662 Y10.189 Z113.963
G1 X10.662 Y10.482 Z111.480
G1 X10.661 Y10.768 Z108.995
G1 X10.661 Y11.046 Z106.508
G1 X10.660 Y11.316 Z104.019
G1 X10.660 Y11.575 Z101.528
G1 X10.659 Y11.824 Z99.035
G1 X10.658 Y12.060 Z96.540
G1 X10.658 Y12.284 Z94.044
G1 X10.657 Y12.494 Z91.546
G1 X10.656 Y12.690 Z89.046
G1 X10.656 Y12.870 Z86.545
G1 X10.655 Y13.034 Z84.043
G1 X10.655 Y13.182 Z81.539
G1 X10.654 Y13.312 Z79.035
G1 X10.654 Y13.425 Z76.530
G1 X10.653 Y13.519 Z74.024
G1 X10.653 Y13.595 Z71.517
G1 X10.653 Y13.652 Z69.010
G1 X10.653 Y13.690 Z66.502
G1 X10.653 Y13.709 Z63.994
G1 X10.653 Y13.708 Z61.486
G1 X10.653 Y13.688 Z58.978
G1 X10.653 Y13.649 Z56.471
G1 X10.653 Y13.590 Z53.963
G1 X10.653 Y13.513 Z51.457
G1 X10.654 Y13.417 Z48.951
G1 X10.654 Y13.303 Z46.445
G1 X10.655 Y13.172 Z43.941
G1 X10.655 Y13.023 Z41.438
G1 X10.656 Y12.857 Z38.936
G1 X10.656 Y12.676 Z36.435
G1 X10.657 Y12.479 Z33.935
G1 X10.658 Y12.268 Z31.437
G1 X10.658 Y12.043 Z28.941
G1 X10.659 Y11.806 Z26.446
G1 X10.660 Y11.557 Z23.954
G1 X10.660 Y11.296 Z21.463
G1 X10.661 Y11.026 Z18.974
G1 X10.661 Y10.748 Z16.487
G1 X10.662 Y10.461 Z14.002
G1 X10.662 Y10.168 Z11.519
G1 X10.662 Y9.869 Z9.039
G1 X10.663 Y9.567 Z6.562
G1 X10.663 Y9.262 Z4.084
G1 X10.666 Y8.952 Z1.598
F200.0
G0 X14.760 Y10.159 Z1.584 ; Rapid move
F50.0
G1 X14.760 Y10.159 Z1.584
G1 X14.754 Y10.473 Z4.076
G1 X14.750 Y10.780 Z6.557
G1 X14.750 Y11.082 Z9.035
G1 X14.750 Y11.381 Z11.516
G1 X14.750 Y11.674 Z13.999
G1 X14.749 Y11.961 Z16.484
G1 X14.749 Y12.240 Z18.971
G1 X14.748 Y12.510 Z21.460
G1 X14.748 Y12.770 Z23.951
G1 X14.747 Y13.019 Z26.444
G1 X14.747 Y13.257 Z28.939
G1 X14.746 Y13.482 Z31.435
G1 X14.746 Y13.693 Z33.933
G1 X14.745 Y13.890 Z36.433
G1 X14.744 Y14.071 Z38.934
G1 X14.744 Y14.237 Z41.436
G1 X14.743 Y14.385 Z43.939
G1 X14.743 Y14.517 Z46.444
G1 X14.742 Y14.631 Z48.950
G1 X14.742 Y14.727 Z51.456
G1 X14.742 Y14.804 Z53.963
G1 X14.742 Y14.863 Z56.470
G1 X14.741 Y14.902 Z58.978
G1 X14.741 Y14.922 Z61.486
G1 X14.741 Y14.923 Z63.994
G1 X14.741 Y14.904 Z66.502
G1 X14.742 Y14.866 Z69.010
G1 X14.742 Y14.809 Z71.517
G1 X14.742 Y14.733 Z74.024
G1 X14.742 Y14.639 Z76.531
G1 X14.743 Y14.526 Z79.036
G1 X14.743 Y14.396 Z81.541
G1 X14.744 Y14.248 Z84.044
G1 X14.744 Y14.084 Z86.547
G1 X14.745 Y13.903 Z89.048
G1 X14.746 Y13.708 Z91.548
G1 X14.746 Y13.498 Z94.046
G1 X14.747 Y13.274 Z96.542
G1 X14.747 Y13.037 Z99.037
G1 X14.748 Y12.789 Z101.530
G1 X14.748 Y12.529 Z104.022
G1 X14.749 Y12.260 Z106.511
G1 X14.749 Y11.982 Z108.998
G1 X14.750 Y11.696 Z111.483
G1 X14.750 Y11.403 Z113.966
G1 X14.751 Y11.105 Z116.447
G1 X14.751 Y10.802 Z118.926
G1 X14.751 Y10.496 Z121.402
G1 X14.751 Y10.188 Z123.877
G1 X14.751 Y9.879 Z126.349
G1 X14.751 Y9.571 Z128.819
G1 X14.751 Y9.264 Z131.286
G1 X14.751 Y8.959 Z133.751
G1 X14.751 Y8.659 Z136.215
G1 X14.750 Y8.363 Z138.676
G1 X14.750 Y8.073 Z141.134
G1 X14.749 Y7.791 Z143.591
G1 X14.748 Y7.517 Z146.044
G1 X14.746 Y7.251 Z148.508
F200.0
G0 X18.858 Y8.380 Z148.499 ; Rapid move
F50.0
G1 X18.858 Y8.380 Z148.499
G1 X18.860 Y8.644 Z146.048
G1 X18.862 Y8.918 Z143.595
G1 X18.862 Y9.200 Z141.138
G1 X18.863 Y9.490 Z138.679
G1 X18.863 Y9.786 Z136.218
G1 X18.863 Y10.086 Z133.755
G1 X18.863 Y10.391 Z131.290
G1 X18.864 Y10.698 Z128.822
G1 X18.864 Y11.006 Z126.353
G1 X18.864 Y11.315 Z123.880
G1 X18.863 Y11.623 Z121.406
G1 X18.863 Y11.929 Z118.930
G1 X18.863 Y12.232 Z116.451
G1 X18.863 Y12.530 Z113.970
G1 X18.862 Y12.823 Z111.487
G1 X18.862 Y13.109 Z109.001
G1 X18.862 Y13.387 Z106.514
G1 X18.861 Y13.656 Z104.025
G1 X18.861 Y13.916 Z101.533
G1 X18.860 Y14.164 Z99.040
G1 X18.860 Y14.401 Z96.545
G1 X18.859 Y14.625 Z94.048
G1 X18.858 Y14.835 Z91.550
G1 X18.858 Y15.031 Z89.050
G1 X18.857 Y15.211 Z86.549
G1 X18.857 Y15.376 Z84.046
G1 X18.856 Y15.523 Z81.543
G1 X18.856 Y15.654 Z79.038
G1 X18.855 Y15.766 Z76.532
G1 X18.855 Y15.861 Z74.025
G1 X18.855 Y15.937 Z71.518
G1 X18.855 Y15.994 Z69.011
G1 X18.854 Y16.032 Z66.503
G1 X18.854 Y16.050 Z63.994
G1 X18.854 Y16.049 Z61.486
G1 X18.855 Y16.029 Z58.978
G1 X18.855 Y15.990 Z56.470
G1 X18.855 Y15.932 Z53.962
G1 X18.855 Y15.854 Z51.455
G1 X18.856 Y15.759 Z48.948
G1 X18.856 Y15.645 Z46.443
G1 X18.856 Y15.513 Z43.938
G1 X18.857 Y15.364 Z41.434
G1 X18.857 Y15.199 Z38.932
G1 X18.858 Y15.017 Z36.430
G1 X18.858 Y14.820 Z33.931
G1 X18.859 Y14.609 Z31.432
G1 X18.859 Y14.384 Z28.936
G1 X18.860 Y14.147 Z26.441
G1 X18.861 Y13.897 Z23.948
G1 X18.861 Y13.637 Z21.457
G1 X18.862 Y13.367 Z18.967
G1 X18.862 Y13.088 Z16.480
G1 X18.862 Y12.801 Z13.995
G1 X18.863 Y12.508 Z11.512
G1 X18.863 Y12.210 Z9.032
G1 X18.863 Y11.907 Z6.552
G1 X18.863 Y11.598 Z4.069
G1 X18.862 Y11.280 Z1.577
F200.0
G0 X22.989 Y12.304 Z1.581 ; Rapid move
F50.0
G1 X22.989 Y12.304 Z1.581
G1 X22.997 Y12.619 Z4.071
G1 X22.999 Y12.926 Z6.550
G1 X22.999 Y13.229 Z9.027
G1 X22.999 Y13.527 Z11.508
G1 X22.998 Y13.821 Z13.991
G1 X22.998 Y14.107 Z16.476
G1 X22.998 Y14.386 Z18.964
G1 X22.997 Y14.656 Z21.453
G1 X22.997 Y14.917 Z23.944
G1 X22.996 Y15.166 Z26.438
G1 X22.996 Y15.404 Z28.933
G1 X22.995 Y15.629 Z31.430
G1 X22.995 Y15.840 Z33.928
G1 X22.994 Y16.037 Z36.428
G1 X22.994 Y16.218 Z38.929
G1 X22.993 Y16.384 Z41.432
G1 X22.993 Y16.533 Z43.936
G1 X22.992 Y16.665 Z46.441
G1 X22.992 Y16.779 Z48.947
G1 X22.992 Y16.874 Z51.454
G1 X22.991 Y16.952 Z53.961
G1 X22.991 Y17.010 Z56.469
G1 X22.991 Y17.049 Z58.977
G1 X22.991 Y17.069 Z61.486
G1 X22.991 Y17.070 Z63.994
G1 X22.991 Y17.052 Z66.503
G1 X22.991 Y17.014 Z69.011
G1 X22.991 Y16.957 Z71.519
G1 X22.992 Y16.881 Z74.027
G1 X22.992 Y16.786 Z76.533
G1 X22.992 Y16.674 Z79.039
G1 X22.993 Y16.543 Z81.544
G1 X22.993 Y16.395 Z84.048
G1 X22.994 Y16.231 Z86.551
G1 X22.994 Y16.051 Z89.053
G1 X22.995 Y15.855 Z91.553
G1 X22.995 Y15.645 Z94.051
G1 X22.996 Y15.421 Z96.548
G1 X22.996 Y15.184 Z99.043
G1 X22.997 Y14.935 Z101.537
G1 X22.997 Y14.676 Z104.028
G1 X22.998 Y14.406 Z106.518
G1 X22.998 Y14.128 Z109.005
G1 X22.998 Y13.842 Z111.491
G1 X22.999 Y13.549 Z113.974
G1 X22.999 Y13.251 Z116.455
G1 X22.999 Y12.948 Z118.934
G1 X22.999 Y12.642 Z121.410
G1 X22.999 Y12.334 Z123.885
G1 X22.999 Y12.025 Z126.357
G1 X22.999 Y11.717 Z128.826
G1 X22.999 Y11.410 Z131.294
G1 X22.999 Y11.106 Z133.759
G1 X22.999 Y10.805 Z136.222
G1 X22.999 Y10.509 Z138.683
G1 X22.998 Y10.220 Z141.142
G1 X22.998 Y9.937 Z143.598
G1 X22.998 Y9.664 Z146.052
G1 X22.999 Y9.398 Z148.514
F200.0
G0 X27.151 Y10.292 Z148.505 ; Rapid move
F50.0
G1 X27.151 Y10.292 Z148.505
G1 X27.155 Y10.555 Z146.056
G1 X27.156 Y10.829 Z143.602
G1 X27.156 Y11.112 Z141.146
G1 X27.156 Y11.401 Z138.687
G1 X27.157 Y11.697 Z136.226
G1 X27.157 Y11.997 Z133.763
G1 X27.157 Y12.302 Z131.298
G1 X27.157 Y12.609 Z128.831
G1 X27.157 Y12.917 Z126.361
G1 X27.157 Y13.226 Z123.889
G1 X27.157 Y13.534 Z121.414
G1 X27.157 Y13.840 Z118.938
G1 X27.157 Y14.143 Z116.459
G1 X27.156 Y14.441 Z113.978
G1 X27.156 Y14.734 Z111.494
G1 X27.156 Y15.020 Z109.009
G1 X27.155 Y15.298 Z106.521
G1 X27.155 Y15.568 Z104.032
G1 X27.155 Y15.827 Z101.540
G1 X27.154 Y16.076 Z99.047
G1 X27.154 Y16.313 Z96.551
G1 X27.153 Y16.537 Z94.054
G1 X27.153 Y16.747 Z91.556
G1 X27.152 Y16.943 Z89.055
G1 X27.152 Y17.123 Z86.554
G1 X27.152 Y17.288 Z84.051
G1 X27.151 Y17.435 Z81.546
G1 X27.151 Y17.566 Z79.041
G1 X27.151 Y17.679 Z76.535
G1 X27.150 Y17.773 Z74.028
G1 X27.150 Y17.849 Z71.520
G1 X27.150 Y17.906 Z69.012
G1 X27.150 Y17.944 Z66.503
G1 X27.150 Y17.963 Z63.994
G1 X27.150 Y17.962 Z61.486
G1 X27.150 Y17.942 Z58.977
G1 X27.150 Y17.903 Z56.468
G1 X27.150 Y17.844 Z53.960
G1 X27.150 Y17.767 Z51.452
G1 X27.151 Y17.671 Z48.945
G1 X27.151 Y17.557 Z46.439
G1 X27.151 Y17.425 Z43.934
G1 X27.152 Y17.276 Z41.430
G1 X27.152 Y17.111 Z38.927
G1 X27.152 Y16.929 Z36.425
G1 X27.153 Y16.732 Z33.925
G1 X27.153 Y16.521 Z31.427
G1 X27.154 Y16.296 Z28.930
G1 X27.154 Y16.058 Z26.434
G1 X27.155 Y15.809 Z23.941
G1 X27.155 Y15.548 Z21.450
G1 X27.155 Y15.278 Z18.960
G1 X27.156 Y14.999 Z16.473
G1 X27.156 Y14.712 Z13.987
G1 X27.156 Y14.419 Z11.504
G1 X27.157 Y14.121 Z9.023
G1 X27.158 Y13.818 Z6.545
G1 X27.158 Y13.512 Z4.068
G1 X27.153 Y13.204 Z1.597
F200.0
G0 X31.342 Y13.953 Z1.581 ; Rapid move
F50.0
G1 X31.342 Y13.953 Z1.581
G1 X31.333 Y14.260 Z4.071
G1 X31.334 Y14.563 Z6.542
G1 X31.334 Y14.867 Z9.018
G1 X31.334 Y15.166 Z11.500
G1 X31.334 Y15.459 Z13.984
G1 X31.333 Y15.746 Z16.469
G1 X31.333 Y16.025 Z18.957
G1 X31.333 Y16.295 Z21.446
G1 X31.332 Y16.556 Z23.938
G1 X31.332 Y16.805 Z26.431
G1 X31.332 Y17.043 Z28.927
G1 X31.331 Y17.268 Z31.424
G1 X31.331 Y17.479 Z33.923
G1 X31.331 Y17.676 Z36.423
G1 X31.330 Y17.858 Z38.925
G1 X31.330 Y18.023 Z41.428
G1 X31.330 Y18.172 Z43.932
G1 X31.329 Y18.304 Z46.438
G1 X31.329 Y18.418 Z48.944
G1 X31.329 Y18.514 Z51.451
G1 X31.329 Y18.592 Z53.959
G1 X31.329 Y18.650 Z56.468
G1 X31.328 Y18.689 Z58.976
G1 X31.328 Y18.709 Z61.485
G1 X31.328 Y18.710 Z63.995
G1 X31.329 Y18.691 Z66.504
G1 X31.329 Y18.653 Z69.012
G1 X31.329 Y18.596 Z71.521
G1 X31.329 Y18.520 Z74.029
G1 X31.329 Y18.426 Z76.536
G1 X31.329 Y18.313 Z79.043
G1 X31.330 Y18.183 Z81.548
G1 X31.330 Y18.035 Z84.053
G1 X31.330 Y17.870 Z86.556
G1 X31.331 Y17.690 Z89.058
G1 X31.331 Y17.494 Z91.558
G1 X31.331 Y17.284 Z94.057
G1 X31.332 Y17.060 Z96.554
G1 X31.332 Y16.823 Z99.050
G1 X31.333 Y16.574 Z101.543
G1 X31.333 Y16.315 Z104.035
G1 X31.333 Y16.045 Z106.525
G1 X31.333 Y15.767 Z109.013
G1 X31.334 Y15.481 Z111.498
G1 X31.334 Y15.188 Z113.981
G1 X31.334 Y14.889 Z116.463
G1 X31.334 Y14.587 Z118.942
G1 X31.334 Y14.280 Z121.418
G1 X31.334 Y13.973 Z123.892
G1 X31.334 Y13.664 Z126.364
G1 X31.334 Y13.355 Z128.834
G1 X31.334 Y13.048 Z131.302
G1 X31.334 Y12.744 Z133.767
G1 X31.334 Y12.444 Z136.230
G1 X31.334 Y12.148 Z138.691
G1 X31.334 Y11.858 Z141.149
G1 X31.333 Y11.576 Z143.606
G1 X31.333 Y11.302 Z146.060
G1 X31.332 Y11.039 Z148.508
F200.0
G0 X35.530 Y11.623 Z148.525 ; Rapid move
F50.0
G1 X35.530 Y11.623 Z148.525
G1 X35.527 Y11.889 Z146.062
G1 X35.527 Y12.163 Z143.608
G1 X35.528 Y12.445 Z141.152
G1 X35.527 Y12.734 Z138.694
G1 X35.528 Y13.030 Z136.233
G1 X35.528 Y13.330 Z133.770
G1 X35.529 Y13.635 Z131.305
G1 X35.529 Y13.942 Z128.838
G1 X35.529 Y14.250 Z126.368
G1 X35.528 Y14.559 Z123.896
G1 X35.528 Y14.867 Z121.422
G1 X35.529 Y15.173 Z118.945
G1 X35.529 Y15.476 Z116.466
G1 X35.528 Y15.774 Z113.985
G1 X35.528 Y16.067 Z111.501
G1 X35.528 Y16.353 Z109.016
G1 X35.528 Y16.632 Z106.528
G1 X35.527 Y16.901 Z104.038
G1 X35.527 Y17.161 Z101.546
G1 X35.527 Y17.410 Z99.053
G1 X35.527 Y17.646 Z96.557
G1 X35.526 Y17.871 Z94.059
G1 X35.526 Y18.081 Z91.560
G1 X35.526 Y18.277 Z89.060
G1 X35.525 Y18.457 Z86.558
G1 X35.525 Y18.622 Z84.054
G1 X35.525 Y18.770 Z81.550
G1 X35.525 Y18.900 Z79.044
G1 X35.525 Y19.013 Z76.537
G1 X35.524 Y19.107 Z74.030
G1 X35.524 Y19.183 Z71.522
G1 X35.524 Y19.241 Z69.013
G1 X35.524 Y19.278 Z66.504
G1 X35.524 Y19.297 Z63.995
G1 X35.524 Y19.296 Z61.485
G1 X35.524 Y19.276 Z58.976
G1 X35.524 Y19.237 Z56.467
G1 X35.524 Y19.179 Z53.958
G1 X35.524 Y19.101 Z51.450
G1 X35.525 Y19.005 Z48.943
G1 X35.525 Y18.891 Z46.436
G1 X35.525 Y18.759 Z43.931
G1 X35.525 Y18.610 Z41.426
G1 X35.526 Y18.445 Z38.923
G1 X35.526 Y18.263 Z36.421
G1 X35.526 Y18.066 Z33.920
G1 X35.526 Y17.855 Z31.421
G1 X35.527 Y17.630 Z28.924
G1 X35.527 Y17.392 Z26.429
G1 X35.527 Y17.142 Z23.935
G1 X35.527 Y16.882 Z21.443
G1 X35.528 Y16.612 Z18.954
G1 X35.528 Y16.333 Z16.466
G1 X35.528 Y16.046 Z13.981
G1 X35.528 Y15.752 Z11.497
G1 X35.528 Y15.453 Z9.015
G1 X35.528 Y15.150 Z6.538
G1 X35.528 Y14.846 Z4.064
G1 X35.534 Y14.529 Z1.555
F200.0
G0 X39.737 Y14.939 Z1.547 ; Rapid move
F50.0
G1 X39.737 Y14.939 Z1.547
G1 X39.736 Y15.260 Z4.059
G1 X39.735 Y15.565 Z6.535
G1 X39.736 Y15.868 Z9.014
G1 X39.736 Y16.167 Z11.495
G1 X39.736 Y16.460 Z13.978
G1 X39.736 Y16.747 Z16.464
G1 X39.736 Y17.026 Z18.951
G1 X39.735 Y17.296 Z21.441
G1 X39.735 Y17.556 Z23.933
G1 X39.735 Y17.806 Z26.427
G1 X39.735 Y18.044 Z28.922
G1 X39.734 Y18.269 Z31.420
G1 X39.734 Y18.480 Z33.919
G1 X39.734 Y18.677 Z36.419
G1 X39.734 Y18.859 Z38.921
G1 X39.734 Y19.025 Z41.425
G1 X39.734 Y19.174 Z43.930
G1 X39.734 Y19.306 Z46.435
G1 X39.733 Y19.420 Z48.942
G1 X39.734 Y19.516 Z51.450
G1 X39.733 Y19.593 Z53.958
G1 X39.733 Y19.652 Z56.467
G1 X39.733 Y19.691 Z58.976
G1 X39.732 Y19.711 Z61.485
G1 X39.732 Y19.712 Z63.995
G1 X39.732 Y19.693 Z66.504
G1 X39.733 Y19.655 Z69.014
G1 X39.733 Y19.598 Z71.522
G1 X39.733 Y19.522 Z74.031
G1 X39.733 Y19.427 Z76.538
G1 X39.734 Y19.314 Z79.045
G1 X39.734 Y19.184 Z81.551
G1 X39.734 Y19.036 Z84.056
G1 X39.734 Y18.872 Z86.559
G1 X39.734 Y18.691 Z89.061
G1 X39.734 Y18.495 Z91.562
G1 X39.734 Y18.285 Z94.061
G1 X39.734 Y18.061 Z96.559
G1 X39.734 Y17.824 Z99.054
G1 X39.734 Y17.575 Z101.548
G1 X39.735 Y17.316 Z104.040
G1 X39.735 Y17.046 Z106.530
G1 X39.736 Y16.767 Z109.018
G1 X39.735 Y16.481 Z111.503
G1 X39.735 Y16.188 Z113.987
G1 X39.735 Y15.890 Z116.469
G1 X39.735 Y15.587 Z118.946
G1 X39.734 Y15.282 Z121.423
G1 X39.734 Y14.974 Z123.899
G1 X39.734 Y14.664 Z126.373
G1 X39.736 Y14.356 Z128.840
G1 X39.736 Y14.049 Z131.308
G1 X39.736 Y13.745 Z133.773
G1 X39.738 Y13.444 Z136.235
G1 X39.743 Y13.149 Z138.699
G1 X39.746 Y12.859 Z141.154
G1 X39.738 Y12.578 Z143.610
G1 X39.732 Y12.303 Z146.064
G1 X39.731 Y12.038 Z148.527
F200.0
G0 X43.960 Y12.271 Z148.516 ; Rapid move
F50.0
G1 X43.960 Y12.271 Z148.516
G1 X43.974 Y12.535 Z146.050
G1 X43.976 Y12.799 Z143.593
G1 X43.974 Y13.073 Z141.152
G1 X43.974 Y13.363 Z138.709
G1 X43.966 Y13.666 Z136.260
G1 X43.951 Y13.977 Z133.781
G1 X43.951 Y14.282 Z131.309
G1 X43.956 Y14.589 Z128.845
G1 X43.956 Y14.899 Z126.371
G1 X43.964 Y15.207 Z123.897
G1 X43.961 Y15.515 Z121.427
G1 X43.954 Y15.820 Z118.949
G1 X43.953 Y16.123 Z116.469
G1 X43.955 Y16.422 Z113.991
G1 X43.951 Y16.715 Z111.502
G1 X43.952 Y17.000 Z109.019
G1 X43.953 Y17.279 Z106.532
G1 X43.954 Y17.549 Z104.040
G1 X43.956 Y17.808 Z101.549
G1 X43.955 Y18.057 Z99.056
G1 X43.954 Y18.294 Z96.561
G1 X43.957 Y18.518 Z94.060
G1 X43.956 Y18.728 Z91.563
G1 X43.954 Y18.924 Z89.064
G1 X43.955 Y19.105 Z86.559
G1 X43.955 Y19.269 Z84.056
G1 X43.951 Y19.417 Z81.552
G1 X43.951 Y19.548 Z79.045
G1 X43.951 Y19.661 Z76.539
G1 X43.951 Y19.755 Z74.031
G1 X43.951 Y19.831 Z71.522
G1 X43.954 Y19.888 Z69.013
G1 X43.956 Y19.926 Z66.506
G1 X43.956 Y19.946 Z63.996
G1 X43.952 Y19.945 Z61.484
G1 X43.960 Y19.922 Z58.967
G1 X43.969 Y19.880 Z56.464
G1 X43.967 Y19.822 Z53.960
G1 X43.958 Y19.747 Z51.456
G1 X43.951 Y19.653 Z48.943
G1 X43.950 Y19.539 Z46.435
G1 X43.955 Y19.407 Z43.927
G1 X43.955 Y19.258 Z41.424
G1 X43.952 Y19.092 Z38.920
G1 X43.953 Y18.910 Z36.419
G1 X43.952 Y18.713 Z33.918
G1 X43.953 Y18.502 Z31.419
G1 X43.952 Y18.277 Z28.921
G1 X43.952 Y18.039 Z26.424
G1 X43.955 Y17.789 Z23.933
G1 X43.950 Y17.530 Z21.442
G1 X43.951 Y17.259 Z18.949
G1 X43.951 Y16.980 Z16.463
G1 X43.952 Y16.693 Z13.976
G1 X43.952 Y16.400 Z11.494
G1 X43.951 Y16.101 Z9.012
G1 X43.952 Y15.798 Z6.533
G1 X43.958 Y15.491 Z4.055
G1 X43.939 Y15.178 Z1.570

M30 ; Program end